STARLINK-36835          
1 67863U 26034P   26056.66668981 -.01598510  73921-3 -40787-2 0  9998
2 67863  53.1521 271.7296 0000490  94.0764 266.6729 15.94792031  1938
STARLINK-36831          
1 67864U 26034Q   26056.66668981 -.01563721  71076-3 -39646-2 0  9996
2 67864  53.1522 271.7266 0000705  71.7342 290.4636 15.94905115  1931
STARLINK-36738          
1 67865U 26034R   26056.66668981 -.01581294  72666-3 -39758-2 0  9992
2 67865  53.1520 271.7232 0000559  87.0786 276.6681 15.95063559  1936
STARLINK-36780          
1 67866U 26034S   26056.66668981 -.01572973  72065-3 -39257-2 0  9994
2 67866  53.1517 271.7200 0000556  83.1348 282.1541 15.95199836  1931
STARLINK-36761          
1 67867U 26034T   26056.66668981 -.01568228  71769-3 -38843-2 0  9993
2 67867  53.1518 271.7165 0000498  87.4499 279.4303 15.95339824  1930
STARLINK-36762          
1 67868U 26034U   26056.66668981 -.01563733  71494-3 -38440-2 0  9998
2 67868  53.1517 271.7134 0000593  85.7533 282.7514 15.95479065  1935
STARLINK-36779          
1 67869U 26034V   26056.66668981 -.01557693  71084-3 -38015-2 0  9990
2 67869  53.1517 271.7099 0000653  81.1407 288.8788 15.95611961  1936
STARLINK-36770          
1 67870U 26034W   26056.66668981 -.01548954  70551-3 -37245-2 0  9994
2 67870  53.1516 271.7034 0000512  81.6889 291.5111 15.95884320  1931
STARLINK-36769          
1 67871U 26034X   26056.66668981 -.01555204  70980-3 -37662-2 0  9990
2 67871  53.1516 271.7065 0000489  83.3083 288.4043 15.95754364  1937
STARLINK-36786          
1 67872U 26034Y   26056.66668981 -.01546912  70479-3 -36923-2 0  9999
2 67872  53.1516 271.7002 0000443  84.3231 290.4026 15.96019768  1932
STARLINK-36783          
1 67873U 26034Z   26056.66668981 -.01540925  70072-3 -36521-2 0  9991
2 67873  53.1515 271.6968 0000490  75.9606 300.2413 15.96148481  1931
STARLINK-36730          
1 67874U 26034AA  26056.66668981 -.01533067  69508-3 -36086-2 0  9999
2 67874  53.1518 271.6943 0000508  77.2164 300.4363 15.96273182  1935
