CCSDS_OMM_VERS = 2.0
CREATION_DATE  = 
ORIGINATOR     = 

OBJECT_NAME    = STARLINK-36835
OBJECT_ID      = 2026-034P
CENTER_NAME    = EARTH
REF_FRAME      = TEME
TIME_SYSTEM    = UTC
MEAN_ELEMENT_THEORY = SGP/SGP4

EPOCH          = 2026-02-25T16:00:01.999584
MEAN_MOTION    = 15.94792031
ECCENTRICITY   = .000049
INCLINATION    = 53.1521
RA_OF_ASC_NODE = 271.7296
ARG_OF_PERICENTER = 94.0764
MEAN_ANOMALY   = 266.6729

EPHEMERIS_TYPE = 0
CLASSIFICATION_TYPE = U
NORAD_CAT_ID   = 67863
ELEMENT_SET_NO = 999
REV_AT_EPOCH   = 193
BSTAR          = -.40787E-2
MEAN_MOTION_DOT = -.159851E-1
MEAN_MOTION_DDOT = .73921E-3

CCSDS_OMM_VERS = 2.0
CREATION_DATE  = 
ORIGINATOR     = 

OBJECT_NAME    = STARLINK-36831
OBJECT_ID      = 2026-034Q
CENTER_NAME    = EARTH
REF_FRAME      = TEME
TIME_SYSTEM    = UTC
MEAN_ELEMENT_THEORY = SGP/SGP4

EPOCH          = 2026-02-25T16:00:01.999584
MEAN_MOTION    = 15.94905115
ECCENTRICITY   = .0000705
INCLINATION    = 53.1522
RA_OF_ASC_NODE = 271.7266
ARG_OF_PERICENTER = 71.7342
MEAN_ANOMALY   = 290.4636

EPHEMERIS_TYPE = 0
CLASSIFICATION_TYPE = U
NORAD_CAT_ID   = 67864
ELEMENT_SET_NO = 999
REV_AT_EPOCH   = 193
BSTAR          = -.39646E-2
MEAN_MOTION_DOT = -.1563721E-1
MEAN_MOTION_DDOT = .71076E-3

CCSDS_OMM_VERS = 2.0
CREATION_DATE  = 
ORIGINATOR     = 

OBJECT_NAME    = STARLINK-36738
OBJECT_ID      = 2026-034R
CENTER_NAME    = EARTH
REF_FRAME      = TEME
TIME_SYSTEM    = UTC
MEAN_ELEMENT_THEORY = SGP/SGP4

EPOCH          = 2026-02-25T16:00:01.999584
MEAN_MOTION    = 15.95063559
ECCENTRICITY   = .0000559
INCLINATION    = 53.1520
RA_OF_ASC_NODE = 271.7232
ARG_OF_PERICENTER = 87.0786
MEAN_ANOMALY   = 276.6681

EPHEMERIS_TYPE = 0
CLASSIFICATION_TYPE = U
NORAD_CAT_ID   = 67865
ELEMENT_SET_NO = 999
REV_AT_EPOCH   = 193
BSTAR          = -.39758E-2
MEAN_MOTION_DOT = -.1581294E-1
MEAN_MOTION_DDOT = .72666E-3

CCSDS_OMM_VERS = 2.0
CREATION_DATE  = 
ORIGINATOR     = 

OBJECT_NAME    = STARLINK-36780
OBJECT_ID      = 2026-034S
CENTER_NAME    = EARTH
REF_FRAME      = TEME
TIME_SYSTEM    = UTC
MEAN_ELEMENT_THEORY = SGP/SGP4

EPOCH          = 2026-02-25T16:00:01.999584
MEAN_MOTION    = 15.95199836
ECCENTRICITY   = .0000556
INCLINATION    = 53.1517
RA_OF_ASC_NODE = 271.7200
ARG_OF_PERICENTER = 83.1348
MEAN_ANOMALY   = 282.1541

EPHEMERIS_TYPE = 0
CLASSIFICATION_TYPE = U
NORAD_CAT_ID   = 67866
ELEMENT_SET_NO = 999
REV_AT_EPOCH   = 193
BSTAR          = -.39257E-2
MEAN_MOTION_DOT = -.1572973E-1
MEAN_MOTION_DDOT = .72065E-3

CCSDS_OMM_VERS = 2.0
CREATION_DATE  = 
ORIGINATOR     = 

OBJECT_NAME    = STARLINK-36761
OBJECT_ID      = 2026-034T
CENTER_NAME    = EARTH
REF_FRAME      = TEME
TIME_SYSTEM    = UTC
MEAN_ELEMENT_THEORY = SGP/SGP4

EPOCH          = 2026-02-25T16:00:01.999584
MEAN_MOTION    = 15.95339824
ECCENTRICITY   = .0000498
INCLINATION    = 53.1518
RA_OF_ASC_NODE = 271.7165
ARG_OF_PERICENTER = 87.4499
MEAN_ANOMALY   = 279.4303

EPHEMERIS_TYPE = 0
CLASSIFICATION_TYPE = U
NORAD_CAT_ID   = 67867
ELEMENT_SET_NO = 999
REV_AT_EPOCH   = 193
BSTAR          = -.38843E-2
MEAN_MOTION_DOT = -.1568228E-1
MEAN_MOTION_DDOT = .71769E-3

CCSDS_OMM_VERS = 2.0
CREATION_DATE  = 
ORIGINATOR     = 

OBJECT_NAME    = STARLINK-36762
OBJECT_ID      = 2026-034U
CENTER_NAME    = EARTH
REF_FRAME      = TEME
TIME_SYSTEM    = UTC
MEAN_ELEMENT_THEORY = SGP/SGP4

EPOCH          = 2026-02-25T16:00:01.999584
MEAN_MOTION    = 15.95479065
ECCENTRICITY   = .0000593
INCLINATION    = 53.1517
RA_OF_ASC_NODE = 271.7134
ARG_OF_PERICENTER = 85.7533
MEAN_ANOMALY   = 282.7514

EPHEMERIS_TYPE = 0
CLASSIFICATION_TYPE = U
NORAD_CAT_ID   = 67868
ELEMENT_SET_NO = 999
REV_AT_EPOCH   = 193
BSTAR          = -.3844E-2
MEAN_MOTION_DOT = -.1563733E-1
MEAN_MOTION_DDOT = .71494E-3

CCSDS_OMM_VERS = 2.0
CREATION_DATE  = 
ORIGINATOR     = 

OBJECT_NAME    = STARLINK-36779
OBJECT_ID      = 2026-034V
CENTER_NAME    = EARTH
REF_FRAME      = TEME
TIME_SYSTEM    = UTC
MEAN_ELEMENT_THEORY = SGP/SGP4

EPOCH          = 2026-02-25T16:00:01.999584
MEAN_MOTION    = 15.95611961
ECCENTRICITY   = .0000653
INCLINATION    = 53.1517
RA_OF_ASC_NODE = 271.7099
ARG_OF_PERICENTER = 81.1407
MEAN_ANOMALY   = 288.8788

EPHEMERIS_TYPE = 0
CLASSIFICATION_TYPE = U
NORAD_CAT_ID   = 67869
ELEMENT_SET_NO = 999
REV_AT_EPOCH   = 193
BSTAR          = -.38015E-2
MEAN_MOTION_DOT = -.1557693E-1
MEAN_MOTION_DDOT = .71084E-3

CCSDS_OMM_VERS = 2.0
CREATION_DATE  = 
ORIGINATOR     = 

OBJECT_NAME    = STARLINK-36770
OBJECT_ID      = 2026-034W
CENTER_NAME    = EARTH
REF_FRAME      = TEME
TIME_SYSTEM    = UTC
MEAN_ELEMENT_THEORY = SGP/SGP4

EPOCH          = 2026-02-25T16:00:01.999584
MEAN_MOTION    = 15.95884320
ECCENTRICITY   = .0000512
INCLINATION    = 53.1516
RA_OF_ASC_NODE = 271.7034
ARG_OF_PERICENTER = 81.6889
MEAN_ANOMALY   = 291.5111

EPHEMERIS_TYPE = 0
CLASSIFICATION_TYPE = U
NORAD_CAT_ID   = 67870
ELEMENT_SET_NO = 999
REV_AT_EPOCH   = 193
BSTAR          = -.37245E-2
MEAN_MOTION_DOT = -.1548954E-1
MEAN_MOTION_DDOT = .70551E-3

CCSDS_OMM_VERS = 2.0
CREATION_DATE  = 
ORIGINATOR     = 

OBJECT_NAME    = STARLINK-36769
OBJECT_ID      = 2026-034X
CENTER_NAME    = EARTH
REF_FRAME      = TEME
TIME_SYSTEM    = UTC
MEAN_ELEMENT_THEORY = SGP/SGP4

EPOCH          = 2026-02-25T16:00:01.999584
MEAN_MOTION    = 15.95754364
ECCENTRICITY   = .0000489
INCLINATION    = 53.1516
RA_OF_ASC_NODE = 271.7065
ARG_OF_PERICENTER = 83.3083
MEAN_ANOMALY   = 288.4043

EPHEMERIS_TYPE = 0
CLASSIFICATION_TYPE = U
NORAD_CAT_ID   = 67871
ELEMENT_SET_NO = 999
REV_AT_EPOCH   = 193
BSTAR          = -.37662E-2
MEAN_MOTION_DOT = -.1555204E-1
MEAN_MOTION_DDOT = .7098E-3

CCSDS_OMM_VERS = 2.0
CREATION_DATE  = 
ORIGINATOR     = 

OBJECT_NAME    = STARLINK-36786
OBJECT_ID      = 2026-034Y
CENTER_NAME    = EARTH
REF_FRAME      = TEME
TIME_SYSTEM    = UTC
MEAN_ELEMENT_THEORY = SGP/SGP4

EPOCH          = 2026-02-25T16:00:01.999584
MEAN_MOTION    = 15.96019768
ECCENTRICITY   = .0000443
INCLINATION    = 53.1516
RA_OF_ASC_NODE = 271.7002
ARG_OF_PERICENTER = 84.3231
MEAN_ANOMALY   = 290.4026

EPHEMERIS_TYPE = 0
CLASSIFICATION_TYPE = U
NORAD_CAT_ID   = 67872
ELEMENT_SET_NO = 999
REV_AT_EPOCH   = 193
BSTAR          = -.36923E-2
MEAN_MOTION_DOT = -.1546912E-1
MEAN_MOTION_DDOT = .70479E-3

CCSDS_OMM_VERS = 2.0
CREATION_DATE  = 
ORIGINATOR     = 

OBJECT_NAME    = STARLINK-36783
OBJECT_ID      = 2026-034Z
CENTER_NAME    = EARTH
REF_FRAME      = TEME
TIME_SYSTEM    = UTC
MEAN_ELEMENT_THEORY = SGP/SGP4

EPOCH          = 2026-02-25T16:00:01.999584
MEAN_MOTION    = 15.96148481
ECCENTRICITY   = .000049
INCLINATION    = 53.1515
RA_OF_ASC_NODE = 271.6968
ARG_OF_PERICENTER = 75.9606
MEAN_ANOMALY   = 300.2413

EPHEMERIS_TYPE = 0
CLASSIFICATION_TYPE = U
NORAD_CAT_ID   = 67873
ELEMENT_SET_NO = 999
REV_AT_EPOCH   = 193
BSTAR          = -.36521E-2
MEAN_MOTION_DOT = -.1540925E-1
MEAN_MOTION_DDOT = .70072E-3

CCSDS_OMM_VERS = 2.0
CREATION_DATE  = 
ORIGINATOR     = 

OBJECT_NAME    = STARLINK-36730
OBJECT_ID      = 2026-034AA
CENTER_NAME    = EARTH
REF_FRAME      = TEME
TIME_SYSTEM    = UTC
MEAN_ELEMENT_THEORY = SGP/SGP4

EPOCH          = 2026-02-25T16:00:01.999584
MEAN_MOTION    = 15.96273182
ECCENTRICITY   = .0000508
INCLINATION    = 53.1518
RA_OF_ASC_NODE = 271.6943
ARG_OF_PERICENTER = 77.2164
MEAN_ANOMALY   = 300.4363

EPHEMERIS_TYPE = 0
CLASSIFICATION_TYPE = U
NORAD_CAT_ID   = 67874
ELEMENT_SET_NO = 999
REV_AT_EPOCH   = 193
BSTAR          = -.36086E-2
MEAN_MOTION_DOT = -.1533067E-1
MEAN_MOTION_DDOT = .69508E-3

